CCSDS_OMM_VERS = 2.0
CREATION_DATE  = 
ORIGINATOR     = 

OBJECT_NAME    = AQUA
OBJECT_ID      = 2002-022A
CENTER_NAME    = EARTH
REF_FRAME      = TEME
TIME_SYSTEM    = UTC
MEAN_ELEMENT_THEORY = SGP/SGP4

EPOCH          = 2026-03-30T05:10:49.084032
MEAN_MOTION    = 14.62024113
ECCENTRICITY   = .0001193
INCLINATION    = 98.4208
RA_OF_ASC_NODE = 56.9601
ARG_OF_PERICENTER = 117.6596
MEAN_ANOMALY   = 299.9408

EPHEMERIS_TYPE = 0
CLASSIFICATION_TYPE = U
NORAD_CAT_ID   = 27424
ELEMENT_SET_NO = 999
REV_AT_EPOCH   = 27173
BSTAR          = .26493E-3
MEAN_MOTION_DOT = .128E-4
MEAN_MOTION_DDOT = 0

CCSDS_OMM_VERS = 2.0
CREATION_DATE  = 
ORIGINATOR     = 

OBJECT_NAME    = CZ-4B R/B
OBJECT_ID      = 2002-024C
CENTER_NAME    = EARTH
REF_FRAME      = TEME
TIME_SYSTEM    = UTC
MEAN_ELEMENT_THEORY = SGP/SGP4

EPOCH          = 2026-03-30T03:40:05.135808
MEAN_MOTION    = 14.14551315
ECCENTRICITY   = .00494643
INCLINATION    = 98.8795
RA_OF_ASC_NODE = 142.4525
ARG_OF_PERICENTER = 325.8796
MEAN_ANOMALY   = 54.1105

EPHEMERIS_TYPE = 0
CLASSIFICATION_TYPE = U
NORAD_CAT_ID   = 27432
ELEMENT_SET_NO = 999
REV_AT_EPOCH   = 23213
BSTAR          = .50540579E-4
MEAN_MOTION_DOT = .53E-6
MEAN_MOTION_DDOT = 0

CCSDS_OMM_VERS = 2.0
CREATION_DATE  = 
ORIGINATOR     = 

OBJECT_NAME    = MIDORI II (ADEOS-II)
OBJECT_ID      = 2002-056A
CENTER_NAME    = EARTH
REF_FRAME      = TEME
TIME_SYSTEM    = UTC
MEAN_ELEMENT_THEORY = SGP/SGP4

EPOCH          = 2026-03-30T04:11:58.087104
MEAN_MOTION    = 14.29300715
ECCENTRICITY   = .0000666
INCLINATION    = 98.7803
RA_OF_ASC_NODE = 47.7987
ARG_OF_PERICENTER = 19.8491
MEAN_ANOMALY   = 340.2716

EPHEMERIS_TYPE = 0
CLASSIFICATION_TYPE = U
NORAD_CAT_ID   = 27597
ELEMENT_SET_NO = 999
REV_AT_EPOCH   = 21322
BSTAR          = .17397E-3
MEAN_MOTION_DOT = .397E-5
MEAN_MOTION_DDOT = 0

CCSDS_OMM_VERS = 2.0
CREATION_DATE  = 
ORIGINATOR     = 

OBJECT_NAME    = H-2A R/B
OBJECT_ID      = 2002-056E
CENTER_NAME    = EARTH
REF_FRAME      = TEME
TIME_SYSTEM    = UTC
MEAN_ELEMENT_THEORY = SGP/SGP4

EPOCH          = 2026-03-30T03:29:12.984288
MEAN_MOTION    = 14.33774638
ECCENTRICITY   = .00713896
INCLINATION    = 98.3237
RA_OF_ASC_NODE = 48.7365
ARG_OF_PERICENTER = 100.4325
MEAN_ANOMALY   = 271.6055

EPHEMERIS_TYPE = 0
CLASSIFICATION_TYPE = U
NORAD_CAT_ID   = 27601
ELEMENT_SET_NO = 999
REV_AT_EPOCH   = 21704
BSTAR          = .14852648E-3
MEAN_MOTION_DOT = .384E-5
MEAN_MOTION_DDOT = 0

CCSDS_OMM_VERS = 2.0
CREATION_DATE  = 
ORIGINATOR     = 

OBJECT_NAME    = CZ-4B R/B
OBJECT_ID      = 2003-049C
CENTER_NAME    = EARTH
REF_FRAME      = TEME
TIME_SYSTEM    = UTC
MEAN_ELEMENT_THEORY = SGP/SGP4

EPOCH          = 2026-03-30T05:16:55.097760
MEAN_MOTION    = 14.55038755
ECCENTRICITY   = .00483628
INCLINATION    = 98.6893
RA_OF_ASC_NODE = 84.9333
ARG_OF_PERICENTER = 167.7256
MEAN_ANOMALY   = 192.5130

EPHEMERIS_TYPE = 0
CLASSIFICATION_TYPE = U
NORAD_CAT_ID   = 28059
ELEMENT_SET_NO = 999
REV_AT_EPOCH   = 18958
BSTAR          = .11745474E-3
MEAN_MOTION_DOT = .463E-5
MEAN_MOTION_DDOT = 0

CCSDS_OMM_VERS = 2.0
CREATION_DATE  = 
ORIGINATOR     = 

OBJECT_NAME    = CZ-2C R/B
OBJECT_ID      = 2004-012C
CENTER_NAME    = EARTH
REF_FRAME      = TEME
TIME_SYSTEM    = UTC
MEAN_ELEMENT_THEORY = SGP/SGP4

EPOCH          = 2026-03-30T02:58:49.041408
MEAN_MOTION    = 15.67052536
ECCENTRICITY   = .00134131
INCLINATION    = 97.7184
RA_OF_ASC_NODE = 156.3867
ARG_OF_PERICENTER = 228.0706
MEAN_ANOMALY   = 131.9411

EPHEMERIS_TYPE = 0
CLASSIFICATION_TYPE = U
NORAD_CAT_ID   = 28222
ELEMENT_SET_NO = 999
REV_AT_EPOCH   = 20747
BSTAR          = .69856243E-3
MEAN_MOTION_DOT = .75103E-3
MEAN_MOTION_DDOT = 0

CCSDS_OMM_VERS = 2.0
CREATION_DATE  = 
ORIGINATOR     = 

OBJECT_NAME    = SL-16 R/B
OBJECT_ID      = 2004-021B
CENTER_NAME    = EARTH
REF_FRAME      = TEME
TIME_SYSTEM    = UTC
MEAN_ELEMENT_THEORY = SGP/SGP4

EPOCH          = 2026-03-30T05:55:01.382592
MEAN_MOTION    = 14.14595788
ECCENTRICITY   = .00050517
INCLINATION    = 71.0010
RA_OF_ASC_NODE = 189.3533
ARG_OF_PERICENTER = 344.4975
MEAN_ANOMALY   = 15.5992

EPHEMERIS_TYPE = 0
CLASSIFICATION_TYPE = U
NORAD_CAT_ID   = 28353
ELEMENT_SET_NO = 999
REV_AT_EPOCH   = 12574
BSTAR          = .15838878E-3
MEAN_MOTION_DOT = .257E-5
MEAN_MOTION_DDOT = 0

CCSDS_OMM_VERS = 2.0
CREATION_DATE  = 
ORIGINATOR     = 

OBJECT_NAME    = CZ-4B R/B
OBJECT_ID      = 2004-035C
CENTER_NAME    = EARTH
REF_FRAME      = TEME
TIME_SYSTEM    = UTC
MEAN_ELEMENT_THEORY = SGP/SGP4

EPOCH          = 2026-03-30T03:04:47.780256
MEAN_MOTION    = 15.29419641
ECCENTRICITY   = .0030047
INCLINATION    = 97.3466
RA_OF_ASC_NODE = 123.1271
ARG_OF_PERICENTER = 255.0310
MEAN_ANOMALY   = 104.7604

EPHEMERIS_TYPE = 0
CLASSIFICATION_TYPE = U
NORAD_CAT_ID   = 28415
ELEMENT_SET_NO = 999
REV_AT_EPOCH   = 18303
BSTAR          = .3706E-3
MEAN_MOTION_DOT = .10643E-3
MEAN_MOTION_DDOT = 0

CCSDS_OMM_VERS = 2.0
CREATION_DATE  = 
ORIGINATOR     = 

OBJECT_NAME    = CZ-2C R/B
OBJECT_ID      = 2004-046B
CENTER_NAME    = EARTH
REF_FRAME      = TEME
TIME_SYSTEM    = UTC
MEAN_ELEMENT_THEORY = SGP/SGP4

EPOCH          = 2026-03-30T04:05:28.124160
MEAN_MOTION    = 14.26999609
ECCENTRICITY   = .0140598
INCLINATION    = 98.1978
RA_OF_ASC_NODE = 2.8784
ARG_OF_PERICENTER = 94.2724
MEAN_ANOMALY   = 267.4539

EPHEMERIS_TYPE = 0
CLASSIFICATION_TYPE = U
NORAD_CAT_ID   = 28480
ELEMENT_SET_NO = 999
REV_AT_EPOCH   = 11142
BSTAR          = .86228E-4
MEAN_MOTION_DOT = .193E-5
MEAN_MOTION_DDOT = 0

CCSDS_OMM_VERS = 2.0
CREATION_DATE  = 
ORIGINATOR     = 

OBJECT_NAME    = ARIANE 5 R/B
OBJECT_ID      = 2004-049H
CENTER_NAME    = EARTH
REF_FRAME      = TEME
TIME_SYSTEM    = UTC
MEAN_ELEMENT_THEORY = SGP/SGP4

EPOCH          = 2026-03-30T04:18:51.237216
MEAN_MOTION    = 14.85303661
ECCENTRICITY   = .00829125
INCLINATION    = 98.2658
RA_OF_ASC_NODE = 258.4083
ARG_OF_PERICENTER = 284.8899
MEAN_ANOMALY   = 74.3144

EPHEMERIS_TYPE = 0
CLASSIFICATION_TYPE = U
NORAD_CAT_ID   = 28499
ELEMENT_SET_NO = 999
REV_AT_EPOCH   = 14883
BSTAR          = .12887899E-3
MEAN_MOTION_DOT = .1111E-4
MEAN_MOTION_DDOT = 0

CCSDS_OMM_VERS = 2.0
CREATION_DATE  = 
ORIGINATOR     = 

OBJECT_NAME    = CZ-2D R/B
OBJECT_ID      = 2005-024B
CENTER_NAME    = EARTH
REF_FRAME      = TEME
TIME_SYSTEM    = UTC
MEAN_ELEMENT_THEORY = SGP/SGP4

EPOCH          = 2026-03-30T06:51:24.265728
MEAN_MOTION    = 15.62053457
ECCENTRICITY   = .00021331
INCLINATION    = 97.3577
RA_OF_ASC_NODE = 105.2147
ARG_OF_PERICENTER = 326.4143
MEAN_ANOMALY   = 33.6979

EPHEMERIS_TYPE = 0
CLASSIFICATION_TYPE = U
NORAD_CAT_ID   = 28738
ELEMENT_SET_NO = 999
REV_AT_EPOCH   = 14299
BSTAR          = .6388218E-3
MEAN_MOTION_DOT = .55998E-3
MEAN_MOTION_DDOT = 0

CCSDS_OMM_VERS = 2.0
CREATION_DATE  = 
ORIGINATOR     = 

OBJECT_NAME    = ALOS (DAICHI)
OBJECT_ID      = 2006-002A
CENTER_NAME    = EARTH
REF_FRAME      = TEME
TIME_SYSTEM    = UTC
MEAN_ELEMENT_THEORY = SGP/SGP4

EPOCH          = 2026-03-30T03:06:52.715520
MEAN_MOTION    = 14.69873007
ECCENTRICITY   = .00009031
INCLINATION    = 98.1251
RA_OF_ASC_NODE = 44.9879
ARG_OF_PERICENTER = 109.6139
MEAN_ANOMALY   = 250.5164

EPHEMERIS_TYPE = 0
CLASSIFICATION_TYPE = U
NORAD_CAT_ID   = 28931
ELEMENT_SET_NO = 999
REV_AT_EPOCH   = 7648
BSTAR          = .29664444E-3
MEAN_MOTION_DOT = .1724E-4
MEAN_MOTION_DDOT = 0

